*******************************************************************************
JPL/HORIZONS               3551 Verenia (1983 RD)          2023-Sep-04 11:24:13
Rec #:    3551 (+COV) Soln.date: 2022-Jul-06_05:52:55    # obs: 570 (1983-2022)
 
IAU76/J2000 helio. ecliptic osc. elements (au, days, deg., period=Julian yrs):
 
  EPOCH=  2457838.5 ! 2017-Mar-26.00 (TDB)         Residual RMS= .24291
   EC= .4878601047668709   QR= 1.071440245546179   TP= 2457765.4484169637
   OM= 173.8398598006376   W=  193.242254773265    IN= 9.515536178326808
   A= 2.092085103150289    MA= 23.79384810951253   ADIST= 3.112729960754399
   PER= 3.02606            N= .32571297            ANGMOM= .021719332
   DAN= 3.03583            DDN= 1.08086            L= 6.9062049
   B= -2.1702252           MOID= .0711729          TP= 2017-Jan-11.9484169637
 
Asteroid physical parameters (km, seconds, rotational period in hours):
   GM= n.a.                RAD= .450               ROTPER= 4.93
   H= 16.71                G= .150                 B-V= .839
                           ALBEDO= .370            STYP= V

ASTEROID comments: 
1: soln ref.= JPL#125, OCC=0
2: source=ORB
*******************************************************************************


*******************************************************************************
Ephemeris / API_USER Mon Sep  4 11:24:13 2023 Pasadena, USA      / Horizons
*******************************************************************************
Target body name: 3551 Verenia (1983 RD)          {source: JPL#125}
Center body name: Solar System Barycenter (0)     {source: DE441}
Center-site name: BODY CENTER
*******************************************************************************
Start time      : A.D. 2023-Aug-12 00:00:00.0000 TDB
Stop  time      : A.D. 2023-Aug-13 00:00:00.0000 TDB
Step-size       : 2880 minutes
*******************************************************************************
Center geodetic : 0.0, 0.0, 0.0                   {E-lon(deg),Lat(deg),Alt(km)}
Center cylindric: 0.0, 0.0, 0.0                   {E-lon(deg),Dxy(km),Dz(km)}
Center radii    : (undefined)
Small perturbers: Yes                             {source: SB441-N16}
Output units    : KM-S
Calendar mode   : Mixed Julian/Gregorian
Output type     : GEOMETRIC cartesian states
Output format   : 2 (position and velocity)
Reference frame : Ecliptic of J2000.0
*******************************************************************************
Initial IAU76/J2000 heliocentric ecliptic osculating elements (au, days, deg.):
  EPOCH=  2457838.5 ! 2017-Mar-26.00 (TDB)         Residual RMS= .24291        
   EC= .4878601047668709   QR= 1.071440245546179   TP= 2457765.4484169637      
   OM= 173.8398598006376   W=  193.242254773265    IN= 9.515536178326808       
  Equivalent ICRF heliocentric cartesian coordinates (au, au/d):
   X= 3.561249186483415E-01  Y= 1.258030410923323E+00  Z= 3.066309492690997E-01
  VX=-1.396341399896440E-02 VY= 9.846271017722888E-03 VZ= 2.706185165575426E-03
Asteroid physical parameters (km, seconds, rotational period in hours):        
   GM= n.a.                RAD= .450               ROTPER= 4.93                
   H= 16.71                G= .150                 B-V= .839                   
                           ALBEDO= .370            STYP= V                     
*******************************************************************************
JDTDB
   X     Y     Z
   VX    VY    VZ
*******************************************************************************
$$SOE
2460168.500000000 = A.D. 2023-Aug-12 00:00:00.0000 TDB 
 X =-1.885600637338064E+08 Y = 2.488038833027335E+08 Z =-3.805402109298298E+07
 VX=-2.034553938172438E+01 VY=-2.584729920232681E+00 VZ= 7.973265538372898E-01
$$EOE
*******************************************************************************
 
TIME

  Barycentric Dynamical Time ("TDB" or T_eph) output was requested. This
continuous coordinate time is equivalent to the relativistic proper time
of a clock at rest in a reference frame co-moving with the solar system
barycenter but outside the system's gravity well. It is the independent
variable in the solar system relativistic equations of motion.

  TDB runs at a uniform rate of one SI second per second and is independent
of irregularities in Earth's rotation.
 
CALENDAR SYSTEM

  Mixed calendar mode was active such that calendar dates after AD 1582-Oct-15
(if any) are in the modern Gregorian system. Dates prior to 1582-Oct-5 (if any)
are in the Julian calendar system, which is automatically extended for dates
prior to its adoption on 45-Jan-1 BC.  The Julian calendar is useful for
matching historical dates. The Gregorian calendar more accurately corresponds
to the Earth's orbital motion and seasons. A "Gregorian-only" calendar mode is
available if such physical events are the primary interest.

REFERENCE FRAME AND COORDINATES

  Ecliptic at the standard reference epoch

    Reference epoch: J2000.0
    X-Y plane: adopted Earth orbital plane at the reference epoch
               Note: IAU76 obliquity of 84381.448 arcseconds wrt ICRF X-Y plane
    X-axis   : ICRF
    Z-axis   : perpendicular to the X-Y plane in the directional (+ or -) sense
               of Earth's north pole at the reference epoch.

  Symbol meaning:

    JDTDB    Julian Day Number, Barycentric Dynamical Time
      X      X-component of position vector (km)
      Y      Y-component of position vector (km)
      Z      Z-component of position vector (km)
      VX     X-component of velocity vector (km/sec)                           
      VY     Y-component of velocity vector (km/sec)                           
      VZ     Z-component of velocity vector (km/sec)                           

ABERRATIONS AND CORRECTIONS

 Geometric state vectors have NO corrections or aberrations applied.

Computations by ...

    Solar System Dynamics Group, Horizons On-Line Ephemeris System
    4800 Oak Grove Drive, Jet Propulsion Laboratory
    Pasadena, CA  91109   USA

    General site: https://ssd.jpl.nasa.gov/
    Mailing list: https://ssd.jpl.nasa.gov/email_list.html
    System news : https://ssd.jpl.nasa.gov/horizons/news.html
    User Guide  : https://ssd.jpl.nasa.gov/horizons/manual.html
    Connect     : browser        https://ssd.jpl.nasa.gov/horizons/app.html#/x
                  API            https://ssd-api.jpl.nasa.gov/doc/horizons.html
                  command-line   telnet ssd.jpl.nasa.gov 6775
                  e-mail/batch   https://ssd.jpl.nasa.gov/ftp/ssd/hrzn_batch.txt
                  scripts        https://ssd.jpl.nasa.gov/ftp/ssd/SCRIPTS
    Author      : Jon.D.Giorgini@jpl.nasa.gov
*******************************************************************************
